<?xml version="1.0" encoding="UTF-8"?>
<ndm xmlns:xsi="http://www.w3.org/2001/XMLSchema-instance" xsi:noNamespaceSchemaLocation="https://sanaregistry.org/r/ndmxml_unqualified/ndmxml-2.0.0-master-2.0.xsd">
<omm id="CCSDS_OMM_VERS" version="2.0">
<header><CREATION_DATE/><ORIGINATOR/></header><body><segment><metadata><OBJECT_NAME>ORBCOMM FM115</OBJECT_NAME><OBJECT_ID>2015-081H</OBJECT_ID><CENTER_NAME>EARTH</CENTER_NAME><REF_FRAME>TEME</REF_FRAME><TIME_SYSTEM>UTC</TIME_SYSTEM><MEAN_ELEMENT_THEORY>SGP4</MEAN_ELEMENT_THEORY></metadata><data><meanElements><EPOCH>2024-11-23T08:52:54.240672</EPOCH><MEAN_MOTION>14.61688190</MEAN_MOTION><ECCENTRICITY>.0000663</ECCENTRICITY><INCLINATION>46.9984</INCLINATION><RA_OF_ASC_NODE>297.8876</RA_OF_ASC_NODE><ARG_OF_PERICENTER>247.3944</ARG_OF_PERICENTER><MEAN_ANOMALY>112.6873</MEAN_ANOMALY></meanElements><tleParameters><EPHEMERIS_TYPE>0</EPHEMERIS_TYPE><CLASSIFICATION_TYPE>U</CLASSIFICATION_TYPE><NORAD_CAT_ID>41186</NORAD_CAT_ID><ELEMENT_SET_NO>999</ELEMENT_SET_NO><REV_AT_EPOCH>47765</REV_AT_EPOCH><BSTAR>.53174E-3</BSTAR><MEAN_MOTION_DOT>.2501E-4</MEAN_MOTION_DOT><MEAN_MOTION_DDOT>0</MEAN_MOTION_DDOT></tleParameters></data></segment></body></omm>
<omm id="CCSDS_OMM_VERS" version="2.0">
<header><CREATION_DATE/><ORIGINATOR/></header><body><segment><metadata><OBJECT_NAME>ORBCOMM FM108</OBJECT_NAME><OBJECT_ID>2015-081J</OBJECT_ID><CENTER_NAME>EARTH</CENTER_NAME><REF_FRAME>TEME</REF_FRAME><TIME_SYSTEM>UTC</TIME_SYSTEM><MEAN_ELEMENT_THEORY>SGP4</MEAN_ELEMENT_THEORY></metadata><data><meanElements><EPOCH>2024-11-23T10:21:40.108608</EPOCH><MEAN_MOTION>14.57463462</MEAN_MOTION><ECCENTRICITY>.0001674</ECCENTRICITY><INCLINATION>47.0053</INCLINATION><RA_OF_ASC_NODE>358.2033</RA_OF_ASC_NODE><ARG_OF_PERICENTER>48.1647</ARG_OF_PERICENTER><MEAN_ANOMALY>311.9381</MEAN_ANOMALY></meanElements><tleParameters><EPHEMERIS_TYPE>0</EPHEMERIS_TYPE><CLASSIFICATION_TYPE>U</CLASSIFICATION_TYPE><NORAD_CAT_ID>41187</NORAD_CAT_ID><ELEMENT_SET_NO>999</ELEMENT_SET_NO><REV_AT_EPOCH>47677</REV_AT_EPOCH><BSTAR>.56469E-3</BSTAR><MEAN_MOTION_DOT>.2421E-4</MEAN_MOTION_DOT><MEAN_MOTION_DDOT>0</MEAN_MOTION_DDOT></tleParameters></data></segment></body></omm>
<omm id="CCSDS_OMM_VERS" version="2.0">
<header><CREATION_DATE/><ORIGINATOR/></header><body><segment><metadata><OBJECT_NAME>ORBCOMM FM117</OBJECT_NAME><OBJECT_ID>2015-081K</OBJECT_ID><CENTER_NAME>EARTH</CENTER_NAME><REF_FRAME>TEME</REF_FRAME><TIME_SYSTEM>UTC</TIME_SYSTEM><MEAN_ELEMENT_THEORY>SGP4</MEAN_ELEMENT_THEORY></metadata><data><meanElements><EPOCH>2024-11-23T12:51:12.253536</EPOCH><MEAN_MOTION>14.57465790</MEAN_MOTION><ECCENTRICITY>.0001724</ECCENTRICITY><INCLINATION>47.0017</INCLINATION><RA_OF_ASC_NODE>356.5497</RA_OF_ASC_NODE><ARG_OF_PERICENTER>76.9344</ARG_OF_PERICENTER><MEAN_ANOMALY>283.1733</MEAN_ANOMALY></meanElements><tleParameters><EPHEMERIS_TYPE>0</EPHEMERIS_TYPE><CLASSIFICATION_TYPE>U</CLASSIFICATION_TYPE><NORAD_CAT_ID>41188</NORAD_CAT_ID><ELEMENT_SET_NO>999</ELEMENT_SET_NO><REV_AT_EPOCH>47683</REV_AT_EPOCH><BSTAR>.55831E-3</BSTAR><MEAN_MOTION_DOT>.2392E-4</MEAN_MOTION_DOT><MEAN_MOTION_DDOT>0</MEAN_MOTION_DDOT></tleParameters></data></segment></body></omm>
<omm id="CCSDS_OMM_VERS" version="2.0">
<header><CREATION_DATE/><ORIGINATOR/></header><body><segment><metadata><OBJECT_NAME>ORBCOMM FM116</OBJECT_NAME><OBJECT_ID>2015-081L</OBJECT_ID><CENTER_NAME>EARTH</CENTER_NAME><REF_FRAME>TEME</REF_FRAME><TIME_SYSTEM>UTC</TIME_SYSTEM><MEAN_ELEMENT_THEORY>SGP4</MEAN_ELEMENT_THEORY></metadata><data><meanElements><EPOCH>2024-11-23T09:18:28.962144</EPOCH><MEAN_MOTION>14.57442194</MEAN_MOTION><ECCENTRICITY>.0002623</ECCENTRICITY><INCLINATION>47.0022</INCLINATION><RA_OF_ASC_NODE>87.0814</RA_OF_ASC_NODE><ARG_OF_PERICENTER>204.3959</ARG_OF_PERICENTER><MEAN_ANOMALY>155.6802</MEAN_ANOMALY></meanElements><tleParameters><EPHEMERIS_TYPE>0</EPHEMERIS_TYPE><CLASSIFICATION_TYPE>U</CLASSIFICATION_TYPE><NORAD_CAT_ID>41189</NORAD_CAT_ID><ELEMENT_SET_NO>999</ELEMENT_SET_NO><REV_AT_EPOCH>47562</REV_AT_EPOCH><BSTAR>.47892E-3</BSTAR><MEAN_MOTION_DOT>.2026E-4</MEAN_MOTION_DOT><MEAN_MOTION_DDOT>0</MEAN_MOTION_DDOT></tleParameters></data></segment></body></omm>
</ndm>
