ORBCOMM FM115           
1 41186U 15081H   24328.37007223  .00002501  00000+0  53174-3 0  9998
2 41186  46.9984 297.8876 0000663 247.3944 112.6873 14.61688190477658
ORBCOMM FM108           
1 41187U 15081J   24328.43171422  .00002421  00000+0  56469-3 0  9990
2 41187  47.0053 358.2033 0001674  48.1647 311.9381 14.57463462476773
ORBCOMM FM117           
1 41188U 15081K   24328.53555849  .00002392  00000+0  55831-3 0  9990
2 41188  47.0017 356.5497 0001724  76.9344 283.1733 14.57465790476832
ORBCOMM FM116           
1 41189U 15081L   24328.38783521  .00002026  00000+0  47892-3 0  9996
2 41189  47.0022  87.0814 0002623 204.3959 155.6802 14.57442194475625
